CCSDS_OMM_VERS = 2.0
CREATION_DATE  = 
ORIGINATOR     = 

OBJECT_NAME    = 1998-067XK
OBJECT_ID      = 1998-067XK
CENTER_NAME    = EARTH
REF_FRAME      = TEME
TIME_SYSTEM    = UTC
MEAN_ELEMENT_THEORY = SGP/SGP4

EPOCH          = 2026-01-25T16:33:25.378848
MEAN_MOTION    = 15.77852040
ECCENTRICITY   = .0004172
INCLINATION    = 51.6251
RA_OF_ASC_NODE = 272.5001
ARG_OF_PERICENTER = 150.1862
MEAN_ANOMALY   = 209.9377

EPHEMERIS_TYPE = 0
CLASSIFICATION_TYPE = U
NORAD_CAT_ID   = 65731
ELEMENT_SET_NO = 999
REV_AT_EPOCH   = 2005
BSTAR          = .1327738E-2
MEAN_MOTION_DOT = .234646E-2
MEAN_MOTION_DDOT = 0

CCSDS_OMM_VERS = 2.0
CREATION_DATE  = 
ORIGINATOR     = 

OBJECT_NAME    = RSP-03
OBJECT_ID      = 1998-067XL
CENTER_NAME    = EARTH
REF_FRAME      = TEME
TIME_SYSTEM    = UTC
MEAN_ELEMENT_THEORY = SGP/SGP4

EPOCH          = 2026-01-25T16:17:58.210080
MEAN_MOTION    = 15.86998570
ECCENTRICITY   = .00053201
INCLINATION    = 51.6206
RA_OF_ASC_NODE = 270.1344
ARG_OF_PERICENTER = 167.5616
MEAN_ANOMALY   = 192.5521

EPHEMERIS_TYPE = 0
CLASSIFICATION_TYPE = U
NORAD_CAT_ID   = 65732
ELEMENT_SET_NO = 999
REV_AT_EPOCH   = 2009
BSTAR          = .16219433E-2
MEAN_MOTION_DOT = .451393E-2
MEAN_MOTION_DDOT = 0

CCSDS_OMM_VERS = 2.0
CREATION_DATE  = 
ORIGINATOR     = 

OBJECT_NAME    = YOTSUBA-KULOVER
OBJECT_ID      = 1998-067XN
CENTER_NAME    = EARTH
REF_FRAME      = TEME
TIME_SYSTEM    = UTC
MEAN_ELEMENT_THEORY = SGP/SGP4

EPOCH          = 2026-01-25T18:22:08.912352
MEAN_MOTION    = 15.67373866
ECCENTRICITY   = .00044356
INCLINATION    = 51.6266
RA_OF_ASC_NODE = 277.5272
ARG_OF_PERICENTER = 163.9939
MEAN_ANOMALY   = 196.1198

EPHEMERIS_TYPE = 0
CLASSIFICATION_TYPE = U
NORAD_CAT_ID   = 65941
ELEMENT_SET_NO = 999
REV_AT_EPOCH   = 1674
BSTAR          = .11770003E-2
MEAN_MOTION_DOT = .13131E-2
MEAN_MOTION_DDOT = 0

CCSDS_OMM_VERS = 2.0
CREATION_DATE  = 
ORIGINATOR     = 

OBJECT_NAME    = BOTAN
OBJECT_ID      = 1998-067XP
CENTER_NAME    = EARTH
REF_FRAME      = TEME
TIME_SYSTEM    = UTC
MEAN_ELEMENT_THEORY = SGP/SGP4

EPOCH          = 2026-01-25T19:14:50.324640
MEAN_MOTION    = 15.76521703
ECCENTRICITY   = .00051772
INCLINATION    = 51.6217
RA_OF_ASC_NODE = 274.7500
ARG_OF_PERICENTER = 172.7994
MEAN_ANOMALY   = 187.3082

EPHEMERIS_TYPE = 0
CLASSIFICATION_TYPE = U
NORAD_CAT_ID   = 65942
ELEMENT_SET_NO = 999
REV_AT_EPOCH   = 1678
BSTAR          = .16525059E-2
MEAN_MOTION_DOT = .276857E-2
MEAN_MOTION_DDOT = 0

CCSDS_OMM_VERS = 2.0
CREATION_DATE  = 
ORIGINATOR     = 

OBJECT_NAME    = E-KAGAKU-1
OBJECT_ID      = 1998-067XQ
CENTER_NAME    = EARTH
REF_FRAME      = TEME
TIME_SYSTEM    = UTC
MEAN_ELEMENT_THEORY = SGP/SGP4

EPOCH          = 2026-01-25T16:50:30.638400
MEAN_MOTION    = 15.67306187
ECCENTRICITY   = .00031111
INCLINATION    = 51.6282
RA_OF_ASC_NODE = 277.8605
ARG_OF_PERICENTER = 171.3413
MEAN_ANOMALY   = 188.7637

EPHEMERIS_TYPE = 0
CLASSIFICATION_TYPE = U
NORAD_CAT_ID   = 65943
ELEMENT_SET_NO = 999
REV_AT_EPOCH   = 1673
BSTAR          = .11846577E-2
MEAN_MOTION_DOT = .131784E-2
MEAN_MOTION_DDOT = 0

CCSDS_OMM_VERS = 2.0
CREATION_DATE  = 
ORIGINATOR     = 

OBJECT_NAME    = HRC MONOBLOCK CAMERA
OBJECT_ID      = 1998-067XR
CENTER_NAME    = EARTH
REF_FRAME      = TEME
TIME_SYSTEM    = UTC
MEAN_ELEMENT_THEORY = SGP/SGP4

EPOCH          = 2026-01-26T10:04:52.787424
MEAN_MOTION    = 15.57859608
ECCENTRICITY   = .0000521
INCLINATION    = 51.6304
RA_OF_ASC_NODE = 278.1540
ARG_OF_PERICENTER = 43.1203
MEAN_ANOMALY   = 316.9830

EPHEMERIS_TYPE = 0
CLASSIFICATION_TYPE = U
NORAD_CAT_ID   = 66052
ELEMENT_SET_NO = 999
REV_AT_EPOCH   = 1579
BSTAR          = .70503E-3
MEAN_MOTION_DOT = .53442E-3
MEAN_MOTION_DDOT = 0

CCSDS_OMM_VERS = 2.0
CREATION_DATE  = 
ORIGINATOR     = 

OBJECT_NAME    = HTV-X1
OBJECT_ID      = 2025-241A
CENTER_NAME    = EARTH
REF_FRAME      = TEME
TIME_SYSTEM    = UTC
MEAN_ELEMENT_THEORY = SGP/SGP4

EPOCH          = 2026-01-26T04:12:04.882464
MEAN_MOTION    = 15.48192940
ECCENTRICITY   = .00110604
INCLINATION    = 51.6321
RA_OF_ASC_NODE = 282.5143
ARG_OF_PERICENTER = 31.3623
MEAN_ANOMALY   = 328.8023

EPHEMERIS_TYPE = 0
CLASSIFICATION_TYPE = U
NORAD_CAT_ID   = 66174
ELEMENT_SET_NO = 999
REV_AT_EPOCH   = 51
BSTAR          = .24609565E-3
MEAN_MOTION_DOT = .12778E-3
MEAN_MOTION_DDOT = 0

CCSDS_OMM_VERS = 2.0
CREATION_DATE  = 
ORIGINATOR     = 

OBJECT_NAME    = SZ-21 MODULE
OBJECT_ID      = 2025-246C
CENTER_NAME    = EARTH
REF_FRAME      = TEME
TIME_SYSTEM    = UTC
MEAN_ELEMENT_THEORY = SGP/SGP4

EPOCH          = 2026-01-25T14:31:03.177696
MEAN_MOTION    = 15.65292049
ECCENTRICITY   = .000326
INCLINATION    = 41.4752
RA_OF_ASC_NODE = 107.9254
ARG_OF_PERICENTER = 237.6166
MEAN_ANOMALY   = 122.4359

EPHEMERIS_TYPE = 0
CLASSIFICATION_TYPE = U
NORAD_CAT_ID   = 66515
ELEMENT_SET_NO = 999
REV_AT_EPOCH   = 1131
BSTAR          = .39793E-3
MEAN_MOTION_DOT = .40571E-3
MEAN_MOTION_DDOT = 0

CCSDS_OMM_VERS = 2.0
CREATION_DATE  = 
ORIGINATOR     = 

OBJECT_NAME    = SHENZHOU-22
OBJECT_ID      = 2025-272A
CENTER_NAME    = EARTH
REF_FRAME      = TEME
TIME_SYSTEM    = UTC
MEAN_ELEMENT_THEORY = SGP/SGP4

EPOCH          = 2026-01-26T06:27:24.659424
MEAN_MOTION    = 15.61108540
ECCENTRICITY   = .00097543
INCLINATION    = 41.4667
RA_OF_ASC_NODE = 105.9915
ARG_OF_PERICENTER = 5.2238
MEAN_ANOMALY   = 354.8701

EPHEMERIS_TYPE = 0
CLASSIFICATION_TYPE = U
NORAD_CAT_ID   = 66645
ELEMENT_SET_NO = 999
REV_AT_EPOCH   = 26764
BSTAR          = .33017883E-3
MEAN_MOTION_DOT = .28479E-3
MEAN_MOTION_DDOT = 0

CCSDS_OMM_VERS = 2.0
CREATION_DATE  = 
ORIGINATOR     = 

OBJECT_NAME    = SOYUZ-MS 28
OBJECT_ID      = 2025-275A
CENTER_NAME    = EARTH
REF_FRAME      = TEME
TIME_SYSTEM    = UTC
MEAN_ELEMENT_THEORY = SGP/SGP4

EPOCH          = 2026-01-26T04:12:04.882464
MEAN_MOTION    = 15.48192939
ECCENTRICITY   = .001106
INCLINATION    = 51.6321
RA_OF_ASC_NODE = 282.5143
ARG_OF_PERICENTER = 31.3623
MEAN_ANOMALY   = 328.8022

EPHEMERIS_TYPE = 0
CLASSIFICATION_TYPE = U
NORAD_CAT_ID   = 66664
ELEMENT_SET_NO = 999
REV_AT_EPOCH   = 54974
BSTAR          = .24608E-3
MEAN_MOTION_DOT = .12778E-3
MEAN_MOTION_DDOT = 0

CCSDS_OMM_VERS = 2.0
CREATION_DATE  = 
ORIGINATOR     = 

OBJECT_NAME    = DUPLEX
OBJECT_ID      = 1998-067XS
CENTER_NAME    = EARTH
REF_FRAME      = TEME
TIME_SYSTEM    = UTC
MEAN_ELEMENT_THEORY = SGP/SGP4

EPOCH          = 2026-01-25T23:16:23.310336
MEAN_MOTION    = 15.53209937
ECCENTRICITY   = .00018388
INCLINATION    = 51.6306
RA_OF_ASC_NODE = 282.6444
ARG_OF_PERICENTER = 58.3850
MEAN_ANOMALY   = 301.7319

EPHEMERIS_TYPE = 0
CLASSIFICATION_TYPE = U
NORAD_CAT_ID   = 66906
ELEMENT_SET_NO = 999
REV_AT_EPOCH   = 848
BSTAR          = .53501998E-3
MEAN_MOTION_DOT = .33926E-3
MEAN_MOTION_DDOT = 0

CCSDS_OMM_VERS = 2.0
CREATION_DATE  = 
ORIGINATOR     = 

OBJECT_NAME    = 1998-067XT
OBJECT_ID      = 1998-067XT
CENTER_NAME    = EARTH
REF_FRAME      = TEME
TIME_SYSTEM    = UTC
MEAN_ELEMENT_THEORY = SGP/SGP4

EPOCH          = 2026-01-25T18:11:22.927200
MEAN_MOTION    = 15.58587556
ECCENTRICITY   = .00031824
INCLINATION    = 51.6285
RA_OF_ASC_NODE = 282.7302
ARG_OF_PERICENTER = 124.4275
MEAN_ANOMALY   = 235.7018

EPHEMERIS_TYPE = 0
CLASSIFICATION_TYPE = U
NORAD_CAT_ID   = 66907
ELEMENT_SET_NO = 999
REV_AT_EPOCH   = 846
BSTAR          = .14581726E-2
MEAN_MOTION_DOT = .115065E-2
MEAN_MOTION_DDOT = 0

